{
    "links": {
        "self": "http://www.neowsapp.com/rest/v1/neo/3468535?api_key=iIulBulltgU6a56xZRHN4H3l9WmuAYTsLGpBGhQ2"
    },
    "id": "3468535",
    "neo_reference_id": "3468535",
    "name": "(2009 SU104)",
    "designation": "2009 SU104",
    "nasa_jpl_url": "http://ssd.jpl.nasa.gov/sbdb.cgi?sstr=3468535",
    "absolute_magnitude_h": 25.6,
    "estimated_diameter": {
        "kilometers": {
            "estimated_diameter_min": 0.0201629919,
            "estimated_diameter_max": 0.0450858206
        },
        "meters": {
            "estimated_diameter_min": 20.1629919443,
            "estimated_diameter_max": 45.0858206172
        },
        "miles": {
            "estimated_diameter_min": 0.0125286985,
            "estimated_diameter_max": 0.0280150214
        },
        "feet": {
            "estimated_diameter_min": 66.1515504905,
            "estimated_diameter_max": 147.9193637137
        }
    },
    "is_potentially_hazardous_asteroid": false,
    "close_approach_data": [
        {
            "close_approach_date": "1983-03-05",
            "close_approach_date_full": "1983-Mar-05 18:27",
            "epoch_date_close_approach": 415736820000,
            "relative_velocity": {
                "kilometers_per_second": "25.6114324825",
                "kilometers_per_hour": "92201.1569371289",
                "miles_per_hour": "57290.2133201843"
            },
            "miss_distance": {
                "astronomical": "0.234343884",
                "lunar": "91.159770876",
                "kilometers": "35057345.89392708",
                "miles": "21783624.618390504"
            },
            "orbiting_body": "Earth"
        },
        {
            "close_approach_date": "2007-09-27",
            "close_approach_date_full": "2007-Sep-27 10:17",
            "epoch_date_close_approach": 1190888220000,
            "relative_velocity": {
                "kilometers_per_second": "6.3657825744",
                "kilometers_per_hour": "22916.8172678217",
                "miles_per_hour": "14239.619040664"
            },
            "miss_distance": {
                "astronomical": "1.4237749199",
                "lunar": "553.8484438411",
                "kilometers": "212993695.376460613",
                "miles": "132348145.2418899394"
            },
            "orbiting_body": "Juptr"
        },
        {
            "close_approach_date": "2009-10-01",
            "close_approach_date_full": "2009-Oct-01 13:07",
            "epoch_date_close_approach": 1254402420000,
            "relative_velocity": {
                "kilometers_per_second": "17.5441761714",
                "kilometers_per_hour": "63159.0342170148",
                "miles_per_hour": "39244.567677789"
            },
            "miss_distance": {
                "astronomical": "0.0057538073",
                "lunar": "2.2382310397",
                "kilometers": "860757.316470451",
                "miles": "534849.7951401838"
            },
            "orbiting_body": "Moon"
        },
        {
            "close_approach_date": "2009-10-01",
            "close_approach_date_full": "2009-Oct-01 19:34",
            "epoch_date_close_approach": 1254425640000,
            "relative_velocity": {
                "kilometers_per_second": "17.2308594896",
                "kilometers_per_hour": "62031.0941626324",
                "miles_per_hour": "38543.7095923312"
            },
            "miss_distance": {
                "astronomical": "0.0065067556",
                "lunar": "2.5311279284",
                "kilometers": "973396.778370572",
                "miles": "604840.7112430136"
            },
            "orbiting_body": "Earth"
        },
        {
            "close_approach_date": "2019-07-14",
            "close_approach_date_full": "2019-Jul-14 12:34",
            "epoch_date_close_approach": 1563107640000,
            "relative_velocity": {
                "kilometers_per_second": "5.4264947832",
                "kilometers_per_hour": "19535.3812193546",
                "miles_per_hour": "12138.5261804373"
            },
            "miss_distance": {
                "astronomical": "1.1926084559",
                "lunar": "463.9246893451",
                "kilometers": "178411684.746628933",
                "miles": "110859880.2605999554"
            },
            "orbiting_body": "Juptr"
        }
    ],
    "orbital_data": {
        "orbit_id": "12",
        "orbit_determination_date": "2017-04-06 08:59:46",
        "first_observation_date": "2009-09-27",
        "last_observation_date": "2009-10-01",
        "data_arc_in_days": 4,
        "observations_used": 73,
        "orbit_uncertainty": "7",
        "minimum_orbit_intersection": ".00773579",
        "jupiter_tisserand_invariant": "3.084",
        "epoch_osculation": "2459000.5",
        "eccentricity": ".6974541549842098",
        "semi_major_axis": "2.485515265098112",
        "inclination": "1.123381682804442",
        "ascending_node_longitude": "347.9169771754098",
        "orbital_period": "1431.274978435884",
        "perihelion_distance": ".7519823161787541",
        "perihelion_argument": "89.82327750712192",
        "aphelion_distance": "4.21904821401747",
        "perihelion_time": "2459427.696756385925",
        "mean_anomaly": "252.5497653378965",
        "mean_motion": ".2515239946368745",
        "equinox": "J2000",
        "orbit_class": {
            "orbit_class_type": "APO",
            "orbit_class_description": "Near-Earth asteroid orbits which cross the Earth’s orbit similar to that of 1862 Apollo",
            "orbit_class_range": "a (semi-major axis) > 1.0 AU; q (perihelion) < 1.017 AU"
        }
    },
    "is_sentry_object": false
}